start=new Date('2021-10-17T00:00:00.000Z').valueOf();
sats=[{"PERIAPSIS":"546.124","MEAN_MOTION_DOT":"-0.00000415","MEAN_MOTION":"15.06389843","TLE_LINE1":"1 48679U 21044AT  21289.26600370 -.00000415  00000-0 -89389-5 0  9995","COUNTRY_CODE":"US","MEAN_ELEMENT_THEORY":"SGP4","ARG_OF_PERICENTER":"78.4133","APOAPSIS":"548.365","OBJECT_TYPE":"PAYLOAD","MEAN_ANOMALY":"281.7038","REF_FRAME":"TEME","LAUNCH_DATE":"2021-05-26","GP_ID":"187358578","TLE_LINE2":"2 48679  53.0560 118.6330 0001618  78.4133 281.7038 15.06389843 21873","EPOCH":"2021-10-16T06:23:02.719680","ECCENTRICITY":"0.00016180","CLASSIFICATION_TYPE":"U","ELEMENT_SET_NO":"999","NORAD_CAT_ID":"48679","REV_AT_EPOCH":"2187","MEAN_MOTION_DDOT":"0.0000000000000","FILE":"3166610","SEMIMAJOR_AXIS":"6925.380","TIME_SYSTEM":"UTC","EPHEMERIS_TYPE":"0","RCS_SIZE":"LARGE","INCLINATION":"53.0560","RA_OF_ASC_NODE":"118.6330","OBJECT_NAME":"STARLINK-2648","PERIOD":"95.593","DECAY_DATE":null,"BSTAR":"-0.00000893890000","OBJECT_ID":"2021-044AT","SITE":"AFETR","CENTER_NAME":"EARTH"},{"PERIAPSIS":"546.134","MEAN_MOTION_DOT":"-0.00001135","MEAN_MOTION":"15.06392736","TLE_LINE1":"1 48680U 21044AU  21289.52770656 -.00001135  00000-0 -57335-4 0  9996","COUNTRY_CODE":"US","ARG_OF_PERICENTER":"77.9467","MEAN_ELEMENT_THEORY":"SGP4","APOAPSIS":"548.338","MEAN_ANOMALY":"282.1701","OBJECT_TYPE":"PAYLOAD","REF_FRAME":"TEME","LAUNCH_DATE":"2021-05-26","GP_ID":"187329983","TLE_LINE2":"2 48680  53.0547 117.4546 0001591  77.9467 282.1701 15.06392736 22812","EPOCH":"2021-10-16T12:39:53.846784","ECCENTRICITY":"0.00015910","CLASSIFICATION_TYPE":"U","ELEMENT_SET_NO":"999","NORAD_CAT_ID":"48680","REV_AT_EPOCH":"2281","MEAN_MOTION_DDOT":"0.0000000000000","FILE":"3166322","SEMIMAJOR_AXIS":"6925.371","TIME_SYSTEM":"UTC","EPHEMERIS_TYPE":"0","RCS_SIZE":"LARGE","INCLINATION":"53.0547","RA_OF_ASC_NODE":"117.4546","PERIOD":"95.593","OBJECT_NAME":"STARLINK-2649","DECAY_DATE":null,"BSTAR":"-0.00005733500000","OBJECT_ID":"2021-044AU","SITE":"AFETR","CENTER_NAME":"EARTH"},{"LAUNCH_DATE":"2021-05-26","MEAN_ANOMALY":"100.5058","OBJECT_TYPE":"PAYLOAD","REF_FRAME":"TEME","CLASSIFICATION_TYPE":"U","ELEMENT_SET_NO":"999","GP_ID":"187358466","TLE_LINE2":"2 48681  53.0264  87.0025 0001936  63.9089 100.5058 15.06405015  3611","EPOCH":"2021-10-16T16:00:00.999936","ECCENTRICITY":"0.00019360","MEAN_MOTION_DOT":"-0.00024411","PERIAPSIS":"545.857","MEAN_ELEMENT_THEORY":"SGP4","ARG_OF_PERICENTER":"63.9089","APOAPSIS":"548.539","MEAN_MOTION":"15.06405015","TLE_LINE1":"1 48681U 21044AV  21289.66667824 -.00024411  00000-0 -16252-2 0  9997","COUNTRY_CODE":"US","DECAY_DATE":null,"INCLINATION":"53.0264","RA_OF_ASC_NODE":"87.0025","PERIOD":"95.592","OBJECT_NAME":"STARLINK-2725","OBJECT_ID":"2021-044AV","SITE":"AFETR","CENTER_NAME":"EARTH","BSTAR":"-0.00162520000000","FILE":"3166610","SEMIMAJOR_AXIS":"6925.333","NORAD_CAT_ID":"48681","REV_AT_EPOCH":"361","MEAN_MOTION_DDOT":"0.0000000000000","RCS_SIZE":"LARGE","EPHEMERIS_TYPE":"0","TIME_SYSTEM":"UTC"},{"TLE_LINE2":"2 48682  53.0397  76.5137 0001243  67.9956  12.6378 15.26957932 23357","GP_ID":"187329725","EPOCH":"2021-10-16T22:00:01.999584","ECCENTRICITY":"0.00012430","CLASSIFICATION_TYPE":"U","ELEMENT_SET_NO":"999","OBJECT_TYPE":"PAYLOAD","MEAN_ANOMALY":"12.6378","REF_FRAME":"TEME","LAUNCH_DATE":"2021-05-26","MEAN_MOTION":"15.26957932","TLE_LINE1":"1 48682U 21044AW  21289.91668981 -.01065996  00000-0 -43371-1 0  9996","COUNTRY_CODE":"US","ARG_OF_PERICENTER":"67.9956","MEAN_ELEMENT_THEORY":"SGP4","APOAPSIS":"485.768","PERIAPSIS":"484.061","MEAN_MOTION_DOT":"-0.01065996","BSTAR":"-0.04337100000000","OBJECT_ID":"2021-044AW","CENTER_NAME":"EARTH","SITE":"AFETR","INCLINATION":"53.0397","RA_OF_ASC_NODE":"76.5137","PERIOD":"94.305","OBJECT_NAME":"STARLINK-2743","DECAY_DATE":null,"TIME_SYSTEM":"UTC","RCS_SIZE":"LARGE","EPHEMERIS_TYPE":"0","NORAD_CAT_ID":"48682","REV_AT_EPOCH":"2335","MEAN_MOTION_DDOT":"0.0000000000000","FILE":"3166357","SEMIMAJOR_AXIS":"6863.049"},{"EPOCH":"2021-10-16T16:00:00.999936","TLE_LINE2":"2 48683  53.0433  77.6229 0001434  73.6599 179.5474 15.29054808  3690","GP_ID":"187358916","ECCENTRICITY":"0.00014340","CLASSIFICATION_TYPE":"U","ELEMENT_SET_NO":"999","REF_FRAME":"TEME","MEAN_ANOMALY":"179.5474","OBJECT_TYPE":"PAYLOAD","LAUNCH_DATE":"2021-05-26","MEAN_MOTION":"15.29054808","TLE_LINE1":"1 48683U 21044AX  21289.66667824 -.01068837  00000-0 -40780-1 0  9992","COUNTRY_CODE":"US","ARG_OF_PERICENTER":"73.6599","MEAN_ELEMENT_THEORY":"SGP4","APOAPSIS":"479.622","PERIAPSIS":"477.655","MEAN_MOTION_DOT":"-0.01068837","BSTAR":"-0.04078000000000","OBJECT_ID":"2021-044AX","SITE":"AFETR","CENTER_NAME":"EARTH","RA_OF_ASC_NODE":"77.6229","INCLINATION":"53.0433","PERIOD":"94.176","OBJECT_NAME":"STARLINK-2756","DECAY_DATE":null,"TIME_SYSTEM":"UTC","RCS_SIZE":"LARGE","EPHEMERIS_TYPE":"0","REV_AT_EPOCH":"369","NORAD_CAT_ID":"48683","MEAN_MOTION_DDOT":"0.0000000000000","FILE":"3166610","SEMIMAJOR_AXIS":"6856.774"},{"REV_AT_EPOCH":"2221","NORAD_CAT_ID":"48684","MEAN_MOTION_DDOT":"0.0000000000000","FILE":"3166610","SEMIMAJOR_AXIS":"6925.376","TIME_SYSTEM":"UTC","RCS_SIZE":"LARGE","EPHEMERIS_TYPE":"0","RA_OF_ASC_NODE":"93.9144","INCLINATION":"53.0557","OBJECT_NAME":"STARLINK-2741","PERIOD":"95.593","DECAY_DATE":null,"BSTAR":"0.00005878700000","OBJECT_ID":"2021-044AY","SITE":"AFETR","CENTER_NAME":"EARTH","PERIAPSIS":"546.008","MEAN_MOTION_DOT":"0.00000594","MEAN_MOTION":"15.06391078","TLE_LINE1":"1 48684U 21044AY  21289.20284041  .00000594  00000-0  58787-4 0  9991","COUNTRY_CODE":"US","ARG_OF_PERICENTER":"78.0601","MEAN_ELEMENT_THEORY":"SGP4","APOAPSIS":"548.474","REF_FRAME":"TEME","OBJECT_TYPE":"PAYLOAD","MEAN_ANOMALY":"282.0588","LAUNCH_DATE":"2021-05-26","EPOCH":"2021-10-16T04:52:05.411424","TLE_LINE2":"2 48684  53.0557  93.9144 0001780  78.0601 282.0588 15.06391078 22215","GP_ID":"187358354","ECCENTRICITY":"0.00017800","CLASSIFICATION_TYPE":"U","ELEMENT_SET_NO":"999"},{"NORAD_CAT_ID":"48685","REV_AT_EPOCH":"369","MEAN_MOTION_DDOT":"0.0000000000000","FILE":"3166610","SEMIMAJOR_AXIS":"6851.664","TIME_SYSTEM":"UTC","EPHEMERIS_TYPE":"0","RCS_SIZE":"LARGE","INCLINATION":"53.0454","RA_OF_ASC_NODE":"77.6315","OBJECT_NAME":"STARLINK-2751","PERIOD":"94.071","DECAY_DATE":null,"BSTAR":"-0.03891100000000","OBJECT_ID":"2021-044AZ","CENTER_NAME":"EARTH","SITE":"AFETR","PERIAPSIS":"472.361","MEAN_MOTION_DOT":"-0.01075087","MEAN_MOTION":"15.30765396","TLE_LINE1":"1 48685U 21044AZ  21289.66667824 -.01075087  00000-0 -38911-1 0  9992","COUNTRY_CODE":"US","ARG_OF_PERICENTER":"36.0644","MEAN_ELEMENT_THEORY":"SGP4","APOAPSIS":"474.698","MEAN_ANOMALY":"334.2959","OBJECT_TYPE":"PAYLOAD","REF_FRAME":"TEME","LAUNCH_DATE":"2021-05-26","GP_ID":"187358804","TLE_LINE2":"2 48685  53.0454  77.6315 0001705  36.0644 334.2959 15.30765396  3697","EPOCH":"2021-10-16T16:00:00.999936","ECCENTRICITY":"0.00017050","CLASSIFICATION_TYPE":"U","ELEMENT_SET_NO":"999"},{"TLE_LINE1":"1 48686U 21044BA  21289.66667824 -.00021198  00000-0 -14084-2 0  9992","COUNTRY_CODE":"US","MEAN_MOTION":"15.06400000","APOAPSIS":"548.362","MEAN_ELEMENT_THEORY":"SGP4","ARG_OF_PERICENTER":"90.0570","PERIAPSIS":"546.065","MEAN_MOTION_DOT":"-0.00021198","ECCENTRICITY":"0.00016590","GP_ID":"187359030","TLE_LINE2":"2 48686  53.0494  81.8349 0001659  90.0570 181.8696 15.06400000  3620","EPOCH":"2021-10-16T16:00:00.999936","CLASSIFICATION_TYPE":"U","ELEMENT_SET_NO":"999","MEAN_ANOMALY":"181.8696","OBJECT_TYPE":"PAYLOAD","REF_FRAME":"TEME","LAUNCH_DATE":"2021-05-26","TIME_SYSTEM":"UTC","RCS_SIZE":"LARGE","EPHEMERIS_TYPE":"0","MEAN_MOTION_DDOT":"0.0000000000000","NORAD_CAT_ID":"48686","REV_AT_EPOCH":"362","SEMIMAJOR_AXIS":"6925.349","FILE":"3166610","BSTAR":"-0.00140840000000","SITE":"AFETR","CENTER_NAME":"EARTH","OBJECT_ID":"2021-044BA","OBJECT_NAME":"STARLINK-2629","PERIOD":"95.592","INCLINATION":"53.0494","RA_OF_ASC_NODE":"81.8349","DECAY_DATE":null},{"MEAN_ANOMALY":"207.7382","OBJECT_TYPE":"PAYLOAD","REF_FRAME":"TEME","LAUNCH_DATE":"2021-05-26","TLE_LINE2":"2 48687  53.0422  75.3941 0001521  52.9255 207.7382 15.51227685  3719","GP_ID":"187358579","EPOCH":"2021-10-16T16:00:00.999936","ECCENTRICITY":"0.00015210","ELEMENT_SET_NO":"999","CLASSIFICATION_TYPE":"U","PERIAPSIS":"412.110","MEAN_MOTION_DOT":"-0.00954296","MEAN_MOTION":"15.51227685","COUNTRY_CODE":"US","TLE_LINE1":"1 48687U 21044BB  21289.66667824 -.00954296  00000-0 -17473-1 0  9991","MEAN_ELEMENT_THEORY":"SGP4","ARG_OF_PERICENTER":"52.9255","APOAPSIS":"414.175","INCLINATION":"53.0422","RA_OF_ASC_NODE":"75.3941","OBJECT_NAME":"STARLINK-2627","PERIOD":"92.830","DECAY_DATE":null,"BSTAR":"-0.01747300000000","OBJECT_ID":"2021-044BB","SITE":"AFETR","CENTER_NAME":"EARTH","NORAD_CAT_ID":"48687","REV_AT_EPOCH":"371","MEAN_MOTION_DDOT":"0.0000000000000","FILE":"3166610","SEMIMAJOR_AXIS":"6791.277","TIME_SYSTEM":"UTC","EPHEMERIS_TYPE":"0","RCS_SIZE":"LARGE"},{"OBJECT_ID":"2021-044BC","SITE":"AFETR","CENTER_NAME":"EARTH","BSTAR":"-0.01758000000000","DECAY_DATE":null,"RA_OF_ASC_NODE":"75.4012","INCLINATION":"53.0417","OBJECT_NAME":"STARLINK-2742","PERIOD":"92.840","RCS_SIZE":"LARGE","EPHEMERIS_TYPE":"0","TIME_SYSTEM":"UTC","FILE":"3166610","SEMIMAJOR_AXIS":"6791.792","REV_AT_EPOCH":"371","NORAD_CAT_ID":"48688","MEAN_MOTION_DDOT":"0.0000000000000","ELEMENT_SET_NO":"999","CLASSIFICATION_TYPE":"U","EPOCH":"2021-10-16T16:00:00.999936","GP_ID":"187358692","TLE_LINE2":"2 48688  53.0417  75.4012 0001645  46.0087 208.5120 15.51051339  3718","ECCENTRICITY":"0.00016450","LAUNCH_DATE":"2021-05-26","REF_FRAME":"TEME","MEAN_ANOMALY":"208.5120","OBJECT_TYPE":"PAYLOAD","ARG_OF_PERICENTER":"46.0087","MEAN_ELEMENT_THEORY":"SGP4","APOAPSIS":"414.774","MEAN_MOTION":"15.51051339","TLE_LINE1":"1 48688U 21044BC  21289.66667824 -.00954122  00000-0 -17580-1 0  9999","COUNTRY_CODE":"US","MEAN_MOTION_DOT":"-0.00954122","PERIAPSIS":"412.540"}];
